ONEWEB-0395             
1 50475U 21132G   24251.78895126  .00000574  00000+0  15824-2 0  9997
2 50475  87.8981 150.0181 0002123  68.7325 291.4029 13.11416491130865
ONEWEB-0396             
1 50476U 21132H   24251.86499566  .00000166  00000+0  38791-3 0  9991
2 50476  87.9076 104.3136 0001666  74.3631 285.7685 13.18685995136323
ONEWEB-0397             
1 50477U 21132J   24251.87921670  .00000124  00000+0  28246-3 0  9997
2 50477  87.9077 104.3121 0001499  77.4734 282.6565 13.18683913136300
ONEWEB-0398             
1 50478U 21132K   24251.75672133 -.00000333  00000+0 -97411-3 0  9996
2 50478  87.8981 150.0003 0002193  80.0826 280.0549 13.11419204130755
ONEWEB-0399             
1 50479U 21132L   24251.74314792 -.00000302  00000+0 -88730-3 0  9990
2 50479  87.8980 150.0213 0001662  63.4249 296.7049 13.11413638130745
ONEWEB-0400             
1 50480U 21132M   24251.85866557  .00000066  00000+0  13360-3 0  9997
2 50480  87.9073 104.3167 0001875  84.8976 275.2370 13.18686387136296
ONEWEB-0401             
1 50481U 21132N   24251.82547357  .00000096  00000+0  21014-3 0  9997
2 50481  87.9072 104.3192 0001390  78.5372 281.5916 13.18686649136293
ONEWEB-0402             
1 50482U 21132P   24251.86656908  .00000062  00000+0  12490-3 0  9996
2 50482  87.9071 104.3083 0000911  79.3139 280.8095 13.18683356136326
